{"spkid": "50519545", "covariance": {"elements": [{"units": null, "value": ".5754681455452427", "title": "eccentricity", "sigma": 1.64029791403865e-07, "name": "e", "label": "e"}, {"label": "q", "name": "q", "sigma": 3.66137402760352e-07, "units": "au", "title": "perihelion distance", "value": ".9474197073721382"}, {"label": "tp", "value": "2458930.502988030288", "title": "time of perihelion passage", "units": "TDB", "name": "tp", "sigma": 3.42592109792076e-05}, {"label": "node", "name": "om", "sigma": 5.4060542779166e-05, "units": "deg", "value": "235.4005744436896", "title": "longitude of the ascending node"}, {"label": "peri", "units": "deg", "value": "296.6349795803307", "title": "argument of perihelion", "sigma": 8.4242598754841e-05, "name": "w"}, {"units": "deg", "title": "inclination", "value": "2.392929959351457", "name": "i", "sigma": 1.00380423121558e-05, "label": "i"}], "data": [["2.690577246799539E-14", "-6.005729681445538E-14", "-5.454312124080219E-12", "1.128985606991435E-12", "-1.058086537690336E-11", "-1.094655121215226E-12"], ["-6.005729681445538E-14", "1.340565977000959E-13", "1.21738969127725E-11", "-2.520027521282651E-12", "2.361670865740995E-11", "2.443789385860108E-12"], ["-5.454312124080219E-12", "1.21738969127725E-11", "1.173693536917856E-9", "-2.224076751992504E-10", "2.21219990618609E-9", "2.02730237641224E-10"], ["1.128985606991435E-12", "-2.520027521282651E-12", "-2.224076751992504E-10", "2.922542285578032E-9", "-3.308701827432767E-9", "-3.574504694589963E-10"], ["-1.058086537690336E-11", "2.361670865740995E-11", "2.21219990618609E-9", "-3.308701827432767E-9", "7.096815444969129E-9", "7.201645554316884E-10"], ["-1.094655121215226E-12", "2.443789385860108E-12", "2.02730237641224E-10", "-3.574504694589963E-10", "7.201645554316884E-10", "1.007622934606305E-10"]], "labels": ["e", "q", "tp", "node", "peri", "i"], "epoch": "2458689.5"}, "elements": [{"label": "e", "name": "e", "sigma": "1.6779E-7", "title": "eccentricity", "value": ".5804595877837923", "units": null}, {"label": "a", "name": "a", "sigma": "7.4521E-9", "value": "2.229674212605595", "title": "semi-major axis", "units": "au"}, {"label": "q", "name": "q", "sigma": "3.724E-7", "units": "au", "title": "perihelion distance", "value": ".9354384382643997"}, {"name": "i", "sigma": "1.0058E-5", "units": "deg", "value": "2.427724747784654", "title": "inclination; angle with respect to x-y ecliptic plane", "label": "i"}, {"label": "node", "sigma": "5.1604E-5", "name": "om", "units": "deg", "title": "longitude of the ascending node", "value": "234.116572205108"}, {"label": "peri", "value": "298.1775968606314", "title": "argument of perihelion", "units": "deg", "name": "w", "sigma": "7.6822E-5"}, {"label": "M", "title": "mean anomaly", "value": "310.2849955704115", "units": "deg", "sigma": "5.0885E-6", "name": "ma"}, {"label": "tp", "name": "tp", "sigma": "1.7517E-5", "units": "TDB", "title": "time of perihelion passage", "value": "2461368.436665259505"}, {"units": "d", "title": "sidereal orbital period", "value": "1216.075512555721", "sigma": "6.0966E-6", "name": "per", "label": "period"}, {"value": ".2960342481063689", "title": "mean motion", "units": "deg/d", "sigma": "1.4841E-9", "name": "n", "label": "n"}, {"units": "au", "title": "aphelion distance", "value": "3.523909986946789", "name": "ad", "sigma": "1.1778E-8", "label": "Q"}], "epoch": "2461200.5"}